[{"OBJECT_NAME":"STAR ONE C4","OBJECT_ID":"2015-034B","EPOCH":"2026-03-09T13:30:24.249888","MEAN_MOTION":1.00272355,"ECCENTRICITY":0.00028192,"INCLINATION":0.0367,"RA_OF_ASC_NODE":0.5236,"ARG_OF_PERICENTER":2.7447,"MEAN_ANOMALY":296.5676,"EPHEMERIS_TYPE":0,"CLASSIFICATION_TYPE":"U","NORAD_CAT_ID":40733,"ELEMENT_SET_NO":999,"REV_AT_EPOCH":3901,"BSTAR":0,"MEAN_MOTION_DOT":-2.64e-6,"MEAN_MOTION_DDOT":0},{"OBJECT_NAME":"VIASAT-2","OBJECT_ID":"2017-029A","EPOCH":"2026-03-09T10:05:03.558048","MEAN_MOTION":1.00268986,"ECCENTRICITY":4.577e-5,"INCLINATION":0.0257,"RA_OF_ASC_NODE":256.1171,"ARG_OF_PERICENTER":158.6477,"MEAN_ANOMALY":193.6921,"EPHEMERIS_TYPE":0,"CLASSIFICATION_TYPE":"U","NORAD_CAT_ID":42740,"ELEMENT_SET_NO":999,"REV_AT_EPOCH":3220,"BSTAR":0,"MEAN_MOTION_DOT":-2.64e-6,"MEAN_MOTION_DDOT":0}]
