STAR ONE C4             
1 40733U 15034B   26068.56278067 -.00000264  00000+0  00000+0 0  9994
2 40733   0.0367   0.5236 0002819   2.7447 296.5676  1.00272355 39014
VIASAT-2                
1 42740U 17029A   26068.42018007 -.00000264  00000+0  00000+0 0  9991
2 42740   0.0257 256.1171 0000457 158.6477 193.6921  1.00268986 32208
